#dP2023 11 24 18  0  0.00000000      96 __u+U IGS20 EXT  IAC
## 2289 496800.00000000   900.00000000 60272 0.7500000000000
+  118   C06C07C08C09C10C11C12C13C14C16C19C20C21C22C23C24C25
+        C26C27C28C29C30C32C33C34C35C36C37C38C39C40C41C42C43
+        C44C45C46E02E03E04E05E07E08E09E10E11E12E13E15E19E21
+        E24E25E26E27E30E31E33E34E36G01G02G03G04G05G06G07G08
+        G09G10G11G12G13G14G15G16G17G18G19G20G21G22G23G24G25
+        G26G27G28G29G30G31G32J02J03J04R01R02R03R04R05R07R08
+        R09R11R12R13R14R15R16R17R18R19R20R21R22R24R25R26  0
++         8  8 10  9  9  9  8 11 10 10  9  8  8  7  9  9  6
++         8  8  9  8  8  6  9  7  9  8  8  9 10  9  8  9  9
++        10  7  9  8  8  9  9  8  7  8  7  7  8  7  7  8  8
++         7  7  8  7  7  8  7  7  8  7  7  7  7  7  7  6  7
++         8  9  7  8  9  9  9  6  7  7  7  7  7  7  7  8  7
++         6  7  6  6  8  6  9 13 10 10  8  8  8  8  8  8  8
++         8  9  7  9  7  9  9  7  7  8 10  8  7  8  8  8  0
%c M  cc GPS ccc cccc cccc cccc cccc ccccc ccccc ccccc ccccc
%c cc cc ccc ccc cccc cccc cccc cccc ccccc ccccc ccccc ccccc
%f  0.0000000  0.000000000  0.00000000000  0.000000000000000
%f  0.0000000  0.000000000  0.00000000000  0.000000000000000
%i    0    0    0    0      0      0      0      0         0
%i    0    0    0    0      0      0      0      0         0
/* IAC                                ULTRA-RAPID PREDICTION
/* S/V CLOCKS ARE ALIGNED TO GNSS TIME                      
/* G:C1WC2W R:C1PC2P E:C1XC5X C:C2IC6I J:C1CC2S             
/* PCV:IGS20_2287 OL/AL:FES2004  NONE     YN ORB:CoN CLK:CoN
*  2023 11 25 10  0  0.00000000
PC06 -18424.922547  33690.470134  17101.381366     39.590305
PC07  -3816.122796  37328.935212  19512.991587   -373.544585
PC08  -6567.209296  19329.142749 -36906.246064    219.888163
PC09  -9811.861429  32097.778804  25582.860855   -134.253495
PC10   3452.027889  40308.451762  13162.387424    -29.770902
PC11 -19803.103548  11824.877621  15799.822400    273.800251
PC12 -13510.400375  -7578.513840  23259.135485    846.999775
PC13     11.274894  22137.220257 -35711.633505    387.394539
PC14 -16482.293898   1975.372607 -22415.564321    853.308971
PC16 -20828.136747  33445.321352  14810.215017   -193.168031
PC19  11040.981244 -11744.251767  22795.498696   -963.109314
PC20  18938.024947   6520.897831  19444.921954     86.082899
PC21 -16013.312707 -22494.889387  -3970.050620   -970.089410
PC22  -3648.941233 -24309.898520  13183.320843   -211.517566
PC23  -4989.179976  16063.657602  22266.390270   -814.894529
PC24 -27530.071399  -2768.056788  -3775.403035    630.526044
PC25 -22085.859334  10291.205190  13611.182679    263.559033
PC26 -17192.451417 -12610.579462 -18042.616257   -211.144677
PC27   8056.546153  15879.288392 -21499.030998    233.097700
PC28  -5782.687375  24952.919690 -11071.202399    176.058161
PC29  17421.592027 -20218.181311  -8151.671694    206.021060
PC30  18066.273924  -2183.532134 -21163.404119     -9.043327
PC32  16158.163879  22425.612948   3871.449961   -537.322998
PC33 -11045.088081  11740.493609 -22783.137805   -943.428883
PC34 -18494.553355   3720.855840  20550.598877    310.997686
PC35   4757.439068 -25169.729846  11107.340219    495.102044
PC36  22896.680544  -9297.968994 -12933.185954   -119.581737
PC37  16212.248173  13265.625111  18428.755167   -899.482541
PC38 -15611.134442  18867.661833 -34325.855295    119.954967
PC39 -22266.694523  34196.499576  10145.301664     -5.803498
PC40  -7726.541043  34525.639026  23165.645582    -45.338373
PC41   3153.814095  24056.644293 -13742.932082   -871.696691
PC42 -19222.419888  -8038.492046 -18517.270196   -492.507203
PC43 -17783.040515  19548.837337   8930.535184     49.698017
PC44  -8603.619803 -15820.476964  21315.915642    303.416221
PC45   4306.666593 -16006.578874 -22453.716912    -49.303433
PC46  27675.897982   2047.193171   2686.901793   -102.483776
PE02  16524.144137  21145.994121  12463.273228     81.335787
PE03   7374.505947  25843.049861  12403.563312    -75.798069
PE04 -16085.309731  -8051.977709 -23508.086056   -265.462038
PE05  -5532.269559  28495.768252  -5787.307275   4694.286713
PE07  15444.216997 -14065.496504  20967.559710    -89.654374
PE08  15819.819598   8684.312976  23456.130351   -182.360151
PE09 -15350.243015  13951.972217 -21123.955955   -240.144457
PE10 -27096.729916   6803.599378   9797.663654   -581.508241
PE11 -26212.816934  13731.120490   -578.444374   3230.836861
PE12 -23853.677674   -587.285951  17513.710107   -791.706257
PE13  26412.067714 -13363.065922   -138.119001    -19.615216
PE15  23558.345207    885.117411 -17886.835537    -71.342605
PE19  -5696.148592 -27127.762132 -10393.327690  -1144.294471
PE21   1925.081333 -17998.513701 -23423.274677   -565.807551
PE24 -20566.401877   3780.602509  20946.064494   -450.797856
PE25  -2339.354674  17812.742504  23527.405543     -2.911235
PE26  13086.121468 -19686.596968  17821.138523    291.095343
PE27  20168.768192  -4261.044224 -21235.725041   -208.488901
PE30  26258.528752  12128.555070  -6256.994765   -690.313886
PE31 -26332.264279 -11833.534100   6565.601990    -10.597605
PE33  -6333.047106 -14718.023662  24897.218654      3.020200
PE34   6963.483374  14406.229441 -24900.188023    -79.858008
PE36 -13791.066395  19569.970973 -17397.236000   -148.857979
PG01  -5742.878393  17111.634449 -19713.697741    163.318862
PG02 -11494.522089  18669.894480 -14340.531757   -524.313494
PG03   4208.586265  18073.200107 -19188.449356      9.442860
PG04   -837.618257  26387.171203   2164.790199    222.384040
PG05   9351.802814 -11797.222159  21709.066007   -151.702921
PG06  24316.772065  -5000.874712  -9510.309913    496.510393
PG07  12573.364740  10741.933773  21341.680037      4.417480
PG08  -5439.584657  24824.455587   6864.730326   -153.796174
PG09   7759.459979  22325.191628  11973.068698      7.422991
PG10 -23752.655901 -10277.909698  -6508.149250    -62.756819
PG11  23597.893636 -11980.049058   1904.559417   -474.754591
PG12  -1519.486322 -18189.604081 -19600.011117   -450.717990
PG13  13137.150283 -18323.441599  13663.262488    598.994061
PG14  23031.872857  12976.680633  -3397.392446    253.063668
PG15   2175.373005 -25516.036611   6109.702270    100.579570
PG16 -15577.200992   5856.395918  20483.616539   -415.900513
PG17  12993.102067   9765.475168 -20541.874455    722.869139
PG18 -13612.120885  -9195.270278  20923.474107   -488.923491
PG19  15179.661674    300.162846 -21964.202863    403.697523
PG20  20013.628032  -4466.030522  16830.600388    399.870764
PG21 -13889.192457  18384.810682 -11831.287131    143.338251
PG22  22550.018943   8864.810846 -10093.809126     77.550695
PG23 -20026.992244 -16687.306682   5599.072360    104.837313
PG24   9319.159267 -19482.777367 -15578.729618   -379.281497
PG25 -14113.279928 -19236.244351 -12279.273515    478.881386
PG26 -22194.657188    222.067162  14714.055956    214.168669
PG27 -12661.803285  15287.488732  17176.566816    -74.678873
PG28 -23684.626200   3961.909138 -11377.542866    -54.223655
PG29  -5109.421063 -23127.953525  11870.569307   -610.127405
PG30  20935.469343   2998.787063  16345.649383   -464.522702
PG31 -24933.884418   9226.030500  -3466.931747   -226.055520
PG32 -14697.773456  -5275.177288 -21322.742666   -589.671699
PJ02 -26607.911649  21779.321820  29546.035868     -0.287713
PJ03 -34554.062151  24047.783536   2367.708995     -9.485924
PJ04 -20356.312318  25424.963744 -21719.160115     72.954009
PR01  -6858.899435  11199.556938 -21872.286110     70.635270
PR02   2936.899990  23161.466229 -10149.242594    -22.319866
PR03  11300.769773  21649.532077   7290.619562     89.682428
PR04  12896.343102   8483.271754  20324.228050    212.540231
PR05   7793.971851  -9363.686492  22421.559286    122.779718
PR07 -11502.765156 -21346.836654  -7974.980602     69.911493
PR08 -13019.809026  -8247.723113 -20284.054634    -73.422116
PR09    945.692904 -11296.213359 -22833.365539    155.146380
PR11 -25008.753156  -4844.347193  -1162.139541   -215.804027
PR12 -18716.687808   4774.524973  16690.894466     33.793862
PR13  -3452.051609  10586.988757  22932.150893    -41.676341
PR14  16818.346146  10727.184957  15916.542559     25.608351
PR15  25125.010616   4407.367960   -239.935282     84.492792
PR16  18915.968646  -4620.053932 -16489.552228     20.943345
PR17   4246.179234  10900.147906 -22657.060773     37.966741
PR18  15214.707318  -3467.916310 -20170.013761    113.693616
PR19  19021.259422 -14516.690874  -8819.928684   -255.919509
PR20  11137.186689 -19599.319693  11988.533502   -104.112756
PR21  -4682.297824 -10328.154091  22852.784968    -56.080171
PR22 -16025.534958   3573.553204  19549.209727     95.198097
PR24  -9790.197204  20067.921353 -12327.026503    -33.487496
PR25  -4085.057975 -11210.217432  22553.174363     -3.816485
PR26 -13139.686044  -8743.824289 -20016.632322    -15.188730
EOF
